[{"OBJECT_NAME":"IRIDIUM 33 DEB","OBJECT_ID":"1997-051BV","EPOCH":"2026-04-05T10:05:01.621824","MEAN_MOTION":14.91927153,"ECCENTRICITY":0.00011717,"INCLINATION":86.253,"RA_OF_ASC_NODE":235.6121,"ARG_OF_PERICENTER":63.32,"MEAN_ANOMALY":358.9349,"EPHEMERIS_TYPE":0,"CLASSIFICATION_TYPE":"U","NORAD_CAT_ID":33960,"ELEMENT_SET_NO":999,"REV_AT_EPOCH":90558,"BSTAR":0.0032194601,"MEAN_MOTION_DOT":0.00032702,"MEAN_MOTION_DDOT":0},{"OBJECT_NAME":"IRIDIUM 33 DEB","OBJECT_ID":"1997-051CB","EPOCH":"2026-04-05T18:24:55.927008","MEAN_MOTION":14.50171545,"ECCENTRICITY":0.0007311,"INCLINATION":86.3969,"RA_OF_ASC_NODE":357.0853,"ARG_OF_PERICENTER":164.5461,"MEAN_ANOMALY":253.6823,"EPHEMERIS_TYPE":0,"CLASSIFICATION_TYPE":"U","NORAD_CAT_ID":33966,"ELEMENT_SET_NO":999,"REV_AT_EPOCH":90094,"BSTAR":0.00066518,"MEAN_MOTION_DOT":2.604e-5,"MEAN_MOTION_DDOT":0},{"OBJECT_NAME":"IRIDIUM 33 DEB","OBJECT_ID":"1997-051CE","EPOCH":"2026-04-05T14:39:42.657696","MEAN_MOTION":14.50130332,"ECCENTRICITY":0.0009728,"INCLINATION":86.3456,"RA_OF_ASC_NODE":328.3347,"ARG_OF_PERICENTER":87.3666,"MEAN_ANOMALY":272.8652,"EPHEMERIS_TYPE":0,"CLASSIFICATION_TYPE":"U","NORAD_CAT_ID":34071,"ELEMENT_SET_NO":999,"REV_AT_EPOCH":89984,"BSTAR":0.00070841,"MEAN_MOTION_DOT":2.771e-5,"MEAN_MOTION_DDOT":0},{"OBJECT_NAME":"IRIDIUM 33 DEB","OBJECT_ID":"1997-051CL","EPOCH":"2026-04-05T18:16:17.905440","MEAN_MOTION":14.67177851,"ECCENTRICITY":0.001012,"INCLINATION":86.3892,"RA_OF_ASC_NODE":1.1953,"ARG_OF_PERICENTER":11.331,"MEAN_ANOMALY":42.8047,"EPHEMERIS_TYPE":0,"CLASSIFICATION_TYPE":"U","NORAD_CAT_ID":34077,"ELEMENT_SET_NO":999,"REV_AT_EPOCH":90003,"BSTAR":0.0015014,"MEAN_MOTION_DOT":8.476e-5,"MEAN_MOTION_DDOT":0},{"OBJECT_NAME":"IRIDIUM 33 DEB","OBJECT_ID":"1997-051CN","EPOCH":"2026-04-05T15:50:12.749856","MEAN_MOTION":14.87897277,"ECCENTRICITY":0.0004978,"INCLINATION":86.3741,"RA_OF_ASC_NODE":316.677,"ARG_OF_PERICENTER":317.8504,"MEAN_ANOMALY":104.9619,"EPHEMERIS_TYPE":0,"CLASSIFICATION_TYPE":"U","NORAD_CAT_ID":34079,"ELEMENT_SET_NO":999,"REV_AT_EPOCH":90669,"BSTAR":0.0015777,"MEAN_MOTION_DOT":0.00014482,"MEAN_MOTION_DDOT":0},{"OBJECT_NAME":"IRIDIUM 33 DEB","OBJECT_ID":"1997-051CX","EPOCH":"2026-04-05T16:55:55.198272","MEAN_MOTION":15.00115221,"ECCENTRICITY":0.0005018,"INCLINATION":86.3834,"RA_OF_ASC_NODE":338.0229,"ARG_OF_PERICENTER":115.1223,"MEAN_ANOMALY":302.6527,"EPHEMERIS_TYPE":0,"CLASSIFICATION_TYPE":"U","NORAD_CAT_ID":34088,"ELEMENT_SET_NO":999,"REV_AT_EPOCH":90445,"BSTAR":0.0028791,"MEAN_MOTION_DOT":0.0003607,"MEAN_MOTION_DDOT":0},{"OBJECT_NAME":"IRIDIUM 33 DEB","OBJECT_ID":"1997-051DA","EPOCH":"2026-04-05T18:37:23.871072","MEAN_MOTION":14.92240994,"ECCENTRICITY":0.0024351,"INCLINATION":86.3474,"RA_OF_ASC_NODE":14.1992,"ARG_OF_PERICENTER":253.8596,"MEAN_ANOMALY":105.9952,"EPHEMERIS_TYPE":0,"CLASSIFICATION_TYPE":"U","NORAD_CAT_ID":34091,"ELEMENT_SET_NO":999,"REV_AT_EPOCH":89561,"BSTAR":0.003839,"MEAN_MOTION_DOT":0.00039556,"MEAN_MOTION_DDOT":0},{"OBJECT_NAME":"IRIDIUM 33 DEB","OBJECT_ID":"1997-051DG","EPOCH":"2026-04-05T15:29:52.279008","MEAN_MOTION":14.3574309,"ECCENTRICITY":0.0081605,"INCLINATION":86.1963,"RA_OF_ASC_NODE":311.1049,"ARG_OF_PERICENTER":350.3078,"MEAN_ANOMALY":9.6539,"EPHEMERIS_TYPE":0,"CLASSIFICATION_TYPE":"U","NORAD_CAT_ID":34097,"ELEMENT_SET_NO":999,"REV_AT_EPOCH":88753,"BSTAR":0.0012535,"MEAN_MOTION_DOT":3.78e-5,"MEAN_MOTION_DDOT":0},{"OBJECT_NAME":"IRIDIUM 33 DEB","OBJECT_ID":"1997-051DY","EPOCH":"2026-04-05T06:38:57.616800","MEAN_MOTION":14.4327426,"ECCENTRICITY":0.005413,"INCLINATION":86.2054,"RA_OF_ASC_NODE":281.9122,"ARG_OF_PERICENTER":79.9851,"MEAN_ANOMALY":280.7452,"EPHEMERIS_TYPE":0,"CLASSIFICATION_TYPE":"U","NORAD_CAT_ID":34145,"ELEMENT_SET_NO":999,"REV_AT_EPOCH":89275,"BSTAR":0.0012925,"MEAN_MOTION_DOT":4.449e-5,"MEAN_MOTION_DDOT":0},{"OBJECT_NAME":"IRIDIUM 33 DEB","OBJECT_ID":"1997-051DZ","EPOCH":"2026-04-05T14:18:25.727040","MEAN_MOTION":14.49868202,"ECCENTRICITY":0.0025669,"INCLINATION":86.2785,"RA_OF_ASC_NODE":299.4821,"ARG_OF_PERICENTER":202.5652,"MEAN_ANOMALY":220.2969,"EPHEMERIS_TYPE":0,"CLASSIFICATION_TYPE":"U","NORAD_CAT_ID":34146,"ELEMENT_SET_NO":999,"REV_AT_EPOCH":89756,"BSTAR":0.00078084,"MEAN_MOTION_DOT":3.047e-5,"MEAN_MOTION_DDOT":0},{"OBJECT_NAME":"IRIDIUM 33 DEB","OBJECT_ID":"1997-051EN","EPOCH":"2026-04-05T10:52:27.325056","MEAN_MOTION":14.38830504,"ECCENTRICITY":0.00257195,"INCLINATION":86.3557,"RA_OF_ASC_NODE":359.7576,"ARG_OF_PERICENTER":275.6038,"MEAN_ANOMALY":84.2227,"EPHEMERIS_TYPE":0,"CLASSIFICATION_TYPE":"U","NORAD_CAT_ID":34159,"ELEMENT_SET_NO":999,"REV_AT_EPOCH":89594,"BSTAR":0.00050149139,"MEAN_MOTION_DOT":1.566e-5,"MEAN_MOTION_DDOT":0},{"OBJECT_NAME":"IRIDIUM 33 DEB","OBJECT_ID":"1997-051ES","EPOCH":"2026-04-05T21:01:19.301376","MEAN_MOTION":14.45757045,"ECCENTRICITY":0.0022785,"INCLINATION":86.3256,"RA_OF_ASC_NODE":313.2928,"ARG_OF_PERICENTER":117.4651,"MEAN_ANOMALY":261.1213,"EPHEMERIS_TYPE":0,"CLASSIFICATION_TYPE":"U","NORAD_CAT_ID":34350,"ELEMENT_SET_NO":999,"REV_AT_EPOCH":89942,"BSTAR":0.00036855,"MEAN_MOTION_DOT":1.33e-5,"MEAN_MOTION_DDOT":0},{"OBJECT_NAME":"IRIDIUM 33 DEB","OBJECT_ID":"1997-051FJ","EPOCH":"2026-04-05T17:21:28.594368","MEAN_MOTION":14.55285231,"ECCENTRICITY":0.0022106,"INCLINATION":86.3733,"RA_OF_ASC_NODE":359.6963,"ARG_OF_PERICENTER":113.328,"MEAN_ANOMALY":275.5968,"EPHEMERIS_TYPE":0,"CLASSIFICATION_TYPE":"U","NORAD_CAT_ID":34366,"ELEMENT_SET_NO":999,"REV_AT_EPOCH":89839,"BSTAR":0.0012347,"MEAN_MOTION_DOT":5.387e-5,"MEAN_MOTION_DDOT":0},{"OBJECT_NAME":"IRIDIUM 33 DEB","OBJECT_ID":"1997-051FT","EPOCH":"2026-04-05T08:31:27.308352","MEAN_MOTION":14.18231916,"ECCENTRICITY":0.01039673,"INCLINATION":86.4303,"RA_OF_ASC_NODE":136.9297,"ARG_OF_PERICENTER":125.5158,"MEAN_ANOMALY":247.4834,"EPHEMERIS_TYPE":0,"CLASSIFICATION_TYPE":"U","NORAD_CAT_ID":34375,"ELEMENT_SET_NO":999,"REV_AT_EPOCH":88322,"BSTAR":0.00049194723,"MEAN_MOTION_DOT":1.086e-5,"MEAN_MOTION_DDOT":0},{"OBJECT_NAME":"IRIDIUM 33 DEB","OBJECT_ID":"1997-051FU","EPOCH":"2026-04-05T18:29:45.574368","MEAN_MOTION":14.64995608,"ECCENTRICITY":0.0025855,"INCLINATION":86.2938,"RA_OF_ASC_NODE":315.1809,"ARG_OF_PERICENTER":139.4126,"MEAN_ANOMALY":220.9021,"EPHEMERIS_TYPE":0,"CLASSIFICATION_TYPE":"U","NORAD_CAT_ID":34376,"ELEMENT_SET_NO":999,"REV_AT_EPOCH":89675,"BSTAR":0.0016266,"MEAN_MOTION_DOT":8.781e-5,"MEAN_MOTION_DDOT":0},{"OBJECT_NAME":"IRIDIUM 33 DEB","OBJECT_ID":"1997-051GB","EPOCH":"2026-04-05T14:36:39.551040","MEAN_MOTION":15.03962031,"ECCENTRICITY":0.0010888,"INCLINATION":86.3879,"RA_OF_ASC_NODE":319.1346,"ARG_OF_PERICENTER":66.2638,"MEAN_ANOMALY":349.104,"EPHEMERIS_TYPE":0,"CLASSIFICATION_TYPE":"U","NORAD_CAT_ID":34486,"ELEMENT_SET_NO":999,"REV_AT_EPOCH":90693,"BSTAR":0.0023239,"MEAN_MOTION_DOT":0.00032235,"MEAN_MOTION_DDOT":0}]
