IRIDIUM 33 DEB          
1 33960U 97051BV  26095.42015766  .00032702  00000+0  32195-2 0  9991
2 33960  86.2530 235.6121 0001171  63.3200 358.9349 14.91927153905581
IRIDIUM 33 DEB          
1 33966U 97051CB  26095.76731397  .00002604  00000+0  66518-3 0  9994
2 33966  86.3969 357.0853 0007311 164.5461 253.6823 14.50171545900944
IRIDIUM 33 DEB          
1 34071U 97051CE  26095.61091039  .00002771  00000+0  70841-3 0  9997
2 34071  86.3456 328.3347 0009728  87.3666 272.8652 14.50130332899843
IRIDIUM 33 DEB          
1 34077U 97051CL  26095.76131835  .00008476  00000+0  15014-2 0  9996
2 34077  86.3892   1.1953 0010120  11.3310  42.8047 14.67177851900035
IRIDIUM 33 DEB          
1 34079U 97051CN  26095.65986979  .00014482  00000+0  15777-2 0  9993
2 34079  86.3741 316.6770 0004978 317.8504 104.9619 14.87897277906690
IRIDIUM 33 DEB          
1 34088U 97051CX  26095.70549998  .00036070  00000+0  28791-2 0  9992
2 34088  86.3834 338.0229 0005018 115.1223 302.6527 15.00115221904458
IRIDIUM 33 DEB          
1 34091U 97051DA  26095.77597073  .00039556  00000+0  38390-2 0  9998
2 34091  86.3474  14.1992 0024351 253.8596 105.9952 14.92240994895614
IRIDIUM 33 DEB          
1 34097U 97051DG  26095.64574397  .00003780  00000+0  12535-2 0  9997
2 34097  86.1963 311.1049 0081605 350.3078   9.6539 14.35743090887532
IRIDIUM 33 DEB          
1 34145U 97051DY  26095.27705575  .00004449  00000+0  12925-2 0  9990
2 34145  86.2054 281.9122 0054130  79.9851 280.7452 14.43274260892753
IRIDIUM 33 DEB          
1 34146U 97051DZ  26095.59613110  .00003047  00000+0  78084-3 0  9991
2 34146  86.2785 299.4821 0025669 202.5652 220.2969 14.49868202897560
IRIDIUM 33 DEB          
1 34159U 97051EN  26095.45309404  .00001566  00000+0  50149-3 0  9994
2 34159  86.3557 359.7576 0025719 275.6038  84.2227 14.38830504895941
IRIDIUM 33 DEB          
1 34350U 97051ES  26095.87591784  .00001330  00000+0  36855-3 0  9994
2 34350  86.3256 313.2928 0022785 117.4651 261.1213 14.45757045899424
IRIDIUM 33 DEB          
1 34366U 97051FJ  26095.72324762  .00005387  00000+0  12347-2 0  9990
2 34366  86.3733 359.6963 0022106 113.3280 275.5968 14.55285231898399
IRIDIUM 33 DEB          
1 34375U 97051FT  26095.35517718  .00001086  00000+0  49195-3 0  9998
2 34375  86.4303 136.9297 0103967 125.5158 247.4834 14.18231916883229
IRIDIUM 33 DEB          
1 34376U 97051FU  26095.77066637  .00008781  00000+0  16266-2 0  9995
2 34376  86.2938 315.1809 0025855 139.4126 220.9021 14.64995608896752
IRIDIUM 33 DEB          
1 34486U 97051GB  26095.60879110  .00032235  00000+0  23239-2 0  9996
2 34486  86.3879 319.1346 0010888  66.2638 349.1040 15.03962031906939
